IRIDIUM 921             
1 24873U 97034E   25020.89188181  .00439308  00000+0  16282-2 0  9997
2 24873  86.3641 177.5930 0003293 322.2394  37.8654 15.87066878509012
IRIDIUM 26              
1 24903U 97043A   25020.91671965  .00001138  00000+0  37812-3 0  9990
2 24903  86.3999 172.4299 0001858  97.5648 262.5760 14.36924166435595
IRIDIUM 22              
1 24907U 97043E   25020.93508242  .00001013  00000+0  34400-3 0  9995
2 24907  86.4001 175.8299 0002029  92.3490 267.7939 14.35761852435641
DUMMY MASS 1            
1 24925U 97048A   25020.89750787  .00001045  00000+0  11436-3 0  9997
2 24925  86.3350 203.3618 0005141 326.0571  34.0324 14.86744165483240
DUMMY MASS 2            
1 24926U 97048B   25020.90250146  .00001035  00000+0  11397-3 0  9999
2 24926  86.3349 204.9391 0006343 337.3281  22.7663 14.86498245483023
IRIDIUM 29              
1 24944U 97051A   25020.93878223  .00001079  00000+0  36328-3 0  9997
2 24944  86.3962 205.5890 0002108  85.0766 275.0671 14.36228756432136
IRIDIUM 33              
1 24946U 97051C   25020.90167698  .00000721  00000+0  24758-3 0  9990
2 24946  86.3877 204.8541 0007471 184.2540 175.8594 14.34729544431621
IRIDIUM 28              
1 24948U 97051E   25020.93800721  .00000971  00000+0  32000-3 0  9992
2 24948  86.3971 203.1903 0001857 102.6143 257.5262 14.37169221432698
